JILIN-1 GAOFEN 03D51    
1 54252U 22155B   26196.96109758  .00037146  00000+0  38002-3 0  9998
2 54252  97.6262 344.0456 0004422 228.7085 131.3794 15.64924439204249
JILIN-1 GAOFEN 03D53    
1 54253U 22155C   26196.94467549  .00020643  00000+0  31523-3 0  9997
2 54253  97.6252 339.2172 0004883 247.3009 112.7728 15.54453209203952
JILIN-1 GAOFEN 03D52    
1 54255U 22155E   26196.95077951  .00032441  00000+0  37117-3 0  9998
2 54255  97.6235 342.2417 0003757 243.4352 116.6520 15.62086728204195
JILIN-1 GAOFEN 03D50    
1 54690U 22167J   26196.94553791  .00006048  00000+0  18022-3 0  9992
2 54690  97.6852   5.9788 0005144  19.2057 340.9379 15.35070595199765
JILIN-1 GAOFEN 03D47    
1 54692U 22167L   26196.94978362  .00005712  00000+0  17419-3 0  9995
2 54692  97.6949   7.7214 0007737  27.0386 333.1257 15.34352215199759
JILIN-1 GAOFEN 03D49    
1 54694U 22167N   26196.96360363  .00006869  00000+0  18574-3 0  9992
2 54694  97.6826   8.3958 0006003  47.0947 313.0800 15.38052867199910
JILIN-1 GAOFEN 03D48    
1 54695U 22167P   26196.93772185  .00006124  00000+0  17825-3 0  9991
2 54695  97.6897   7.6929 0006383  27.7739 332.3843 15.35801954199809
JILIN GAOFEN OBJECT A   
1 68691U 26080A   26196.79686066  .00002392  00000+0  15440-3 0  9990
2 68691  97.6617 272.2751 0011209 333.2917  26.7733 15.09203524 13974
JILIN GAOFEN OBJECT B   
1 68692U 26080B   26196.84530200  .00002177  00000+0  14185-3 0  9991
2 68692  97.6589 272.3366 0015727 311.1757  48.8115 15.08903393 13982
JILIN GAOFEN OBJECT C   
1 68693U 26080C   26196.79571421  .00002173  00000+0  14166-3 0  9991
2 68693  97.6608 272.2598 0013841 316.4089  43.6044 15.08902045 13978
JILIN GAOFEN OBJECT D   
1 68694U 26080D   26196.97873128  .00002118  00000+0  13791-3 0  9993
2 68694  97.6652 272.5443 0016426 322.5134  37.4948 15.08962917 13980
JILIN GAOFEN OBJECT E   
1 68695U 26080E   26196.96044087  .00002763  00000+0  17892-3 0  9999
2 68695  97.6633 272.5462 0013814 332.9750  27.0758 15.08923500 13965
JILIN GAOFEN OBJECT F   
1 68696U 26080F   26196.95947006  .00003564  00000+0  22975-3 0  9990
2 68696  97.6605 272.5134 0012529 335.7755  24.2882 15.08908182 13965
JILIN GAOFEN OBJECT G   
1 68697U 26080G   26196.94555432  .00002605  00000+0  16897-3 0  9999
2 68697  97.6654 272.5841 0014640 332.4805  27.5647 15.08901456 13963
JILIN GAOFEN OBJECT H   
1 68698U 26080H   26196.87719656  .00002474  00000+0  16067-3 0  9995
2 68698  97.6673 272.4962 0013613 330.3688  29.6768 15.08926780 13956
